[
    {
        "CCSDS_OMM_VERS": "3.0",
        "COMMENT": "GENERATED VIA SPACE-TRACK.ORG API",
        "CREATION_DATE": "2025-05-04T02:26:54",
        "ORIGINATOR": "18 SPCS",
        "OBJECT_NAME": "NAVSTAR 75 (USA 265)",
        "OBJECT_ID": "2015-062A",
        "CENTER_NAME": "EARTH",
        "REF_FRAME": "TEME",
        "TIME_SYSTEM": "UTC",
        "MEAN_ELEMENT_THEORY": "SGP4",
        "EPOCH": "2025-05-03T10:45:30.013920",
        "MEAN_MOTION": "2.00566753",
        "ECCENTRICITY": "0.01028460",
        "INCLINATION": "56.6655",
        "RA_OF_ASC_NODE": "46.6403",
        "ARG_OF_PERICENTER": "228.5971",
        "MEAN_ANOMALY": "130.5164",
        "EPHEMERIS_TYPE": "0",
        "CLASSIFICATION_TYPE": "U",
        "NORAD_CAT_ID": "41019",
        "ELEMENT_SET_NO": "999",
        "REV_AT_EPOCH": "6961",
        "BSTAR": "0.00000000000000",
        "MEAN_MOTION_DOT": "-0.00000075",
        "MEAN_MOTION_DDOT": "0.0000000000000",
        "SEMIMAJOR_AXIS": "26560.070",
        "PERIOD": "717.965",
        "APOAPSIS": "20455.095",
        "PERIAPSIS": "19908.775",
        "OBJECT_TYPE": "PAYLOAD",
        "RCS_SIZE": "LARGE",
        "COUNTRY_CODE": "US",
        "LAUNCH_DATE": "2015-10-31",
        "SITE": "AFETR",
        "DECAY_DATE": null,
        "FILE": "4718307",
        "GP_ID": "286797915",
        "TLE_LINE0": "0 NAVSTAR 75 (USA 265)",
        "TLE_LINE1": "1 41019U 15062A   25123.44826405 -.00000075  00000-0  00000-0 0  9998",
        "TLE_LINE2": "2 41019  56.6655  46.6403 0102846 228.5971 130.5164  2.00566753 69614"
    }
]